SHIYAN-1 (SY-1)         
1 28220U 04012A   26068.73650539  .00016393  00000+0  54854-3 0  9991
2 28220  97.8764 140.5238 0005873  23.6952 336.4557 15.31043463195862
STARLINK-36528          
1 67458U 26008P   26068.40827822  .00034381  00000+0  12517-2 0  9997
2 67458  43.0003 206.4144 0003929 146.2409 213.8694 15.27610439  9530
