[{"OBJECT_NAME":"SHIYAN-1 (SY-1)","OBJECT_ID":"2004-012A","EPOCH":"2026-03-09T17:40:34.066560","MEAN_MOTION":15.31043463,"ECCENTRICITY":0.00058726,"INCLINATION":97.8764,"RA_OF_ASC_NODE":140.5238,"ARG_OF_PERICENTER":23.6952,"MEAN_ANOMALY":336.4557,"EPHEMERIS_TYPE":0,"CLASSIFICATION_TYPE":"U","NORAD_CAT_ID":28220,"ELEMENT_SET_NO":999,"REV_AT_EPOCH":19586,"BSTAR":0.00054854449,"MEAN_MOTION_DOT":0.00016393,"MEAN_MOTION_DDOT":0},{"OBJECT_NAME":"STARLINK-36528","OBJECT_ID":"2026-008P","EPOCH":"2026-03-09T09:47:55.238208","MEAN_MOTION":15.27610439,"ECCENTRICITY":0.00039298,"INCLINATION":43.0003,"RA_OF_ASC_NODE":206.4144,"ARG_OF_PERICENTER":146.2409,"MEAN_ANOMALY":213.8694,"EPHEMERIS_TYPE":0,"CLASSIFICATION_TYPE":"U","NORAD_CAT_ID":67458,"ELEMENT_SET_NO":999,"REV_AT_EPOCH":953,"BSTAR":0.0012517381,"MEAN_MOTION_DOT":0.00034381,"MEAN_MOTION_DDOT":0}]
